CCSDS_OMM_VERS = 2.0
CREATION_DATE  = 
ORIGINATOR     = 

OBJECT_NAME    = ALOS (DAICHI)
OBJECT_ID      = 2006-002A
CENTER_NAME    = EARTH
REF_FRAME      = TEME
TIME_SYSTEM    = UTC
MEAN_ELEMENT_THEORY = SGP/SGP4

EPOCH          = 2026-01-23T15:18:32.865696
MEAN_MOTION    = 14.69643397
ECCENTRICITY   = .00022055
INCLINATION    = 98.1155
RA_OF_ASC_NODE = 339.8471
ARG_OF_PERICENTER = 82.1597
MEAN_ANOMALY   = 277.9859

EPHEMERIS_TYPE = 0
CLASSIFICATION_TYPE = U
NORAD_CAT_ID   = 28931
ELEMENT_SET_NO = 999
REV_AT_EPOCH   = 6686
BSTAR          = .4226956E-3
MEAN_MOTION_DOT = .2465E-4
MEAN_MOTION_DDOT = 0

CCSDS_OMM_VERS = 2.0
CREATION_DATE  = 
ORIGINATOR     = 

OBJECT_NAME    = H-2A R/B
OBJECT_ID      = 2006-002B
CENTER_NAME    = EARTH
REF_FRAME      = TEME
TIME_SYSTEM    = UTC
MEAN_ELEMENT_THEORY = SGP/SGP4

EPOCH          = 2026-01-23T15:48:47.495520
MEAN_MOTION    = 15.15488259
ECCENTRICITY   = .00540145
INCLINATION    = 98.2347
RA_OF_ASC_NODE = 166.8678
ARG_OF_PERICENTER = 35.5522
MEAN_ANOMALY   = 324.9288

EPHEMERIS_TYPE = 0
CLASSIFICATION_TYPE = U
NORAD_CAT_ID   = 28932
ELEMENT_SET_NO = 999
REV_AT_EPOCH   = 8761
BSTAR          = .6620227E-3
MEAN_MOTION_DOT = .12936E-3
MEAN_MOTION_DDOT = 0

CCSDS_OMM_VERS = 2.0
CREATION_DATE  = 
ORIGINATOR     = 

OBJECT_NAME    = RESURS-DK 1
OBJECT_ID      = 2006-021A
CENTER_NAME    = EARTH
REF_FRAME      = TEME
TIME_SYSTEM    = UTC
MEAN_ELEMENT_THEORY = SGP/SGP4

EPOCH          = 2026-01-23T08:50:40.672320
MEAN_MOTION    = 15.12441188
ECCENTRICITY   = .00051437
INCLINATION    = 69.9349
RA_OF_ASC_NODE = 354.2308
ARG_OF_PERICENTER = 218.7892
MEAN_ANOMALY   = 141.2905

EPHEMERIS_TYPE = 0
CLASSIFICATION_TYPE = U
NORAD_CAT_ID   = 29228
ELEMENT_SET_NO = 999
REV_AT_EPOCH   = 8067
BSTAR          = .24384683E-3
MEAN_MOTION_DOT = .4143E-4
MEAN_MOTION_DDOT = 0

CCSDS_OMM_VERS = 2.0
CREATION_DATE  = 
ORIGINATOR     = 

OBJECT_NAME    = CZ-4B R/B
OBJECT_ID      = 2006-046C
CENTER_NAME    = EARTH
REF_FRAME      = TEME
TIME_SYSTEM    = UTC
MEAN_ELEMENT_THEORY = SGP/SGP4

EPOCH          = 2026-01-23T13:08:04.832160
MEAN_MOTION    = 15.16373457
ECCENTRICITY   = .0035029
INCLINATION    = 97.5674
RA_OF_ASC_NODE = 68.5731
ARG_OF_PERICENTER = 65.2349
MEAN_ANOMALY   = 295.2522

EPHEMERIS_TYPE = 0
CLASSIFICATION_TYPE = U
NORAD_CAT_ID   = 29507
ELEMENT_SET_NO = 999
REV_AT_EPOCH   = 5320
BSTAR          = .38654001E-3
MEAN_MOTION_DOT = .7553E-4
MEAN_MOTION_DDOT = 0

CCSDS_OMM_VERS = 2.0
CREATION_DATE  = 
ORIGINATOR     = 

OBJECT_NAME    = CZ-2C R/B
OBJECT_ID      = 2007-010B
CENTER_NAME    = EARTH
REF_FRAME      = TEME
TIME_SYSTEM    = UTC
MEAN_ELEMENT_THEORY = SGP/SGP4

EPOCH          = 2026-01-23T13:36:43.412832
MEAN_MOTION    = 14.20229144
ECCENTRICITY   = .00600175
INCLINATION    = 98.3971
RA_OF_ASC_NODE = 139.1133
ARG_OF_PERICENTER = 65.9643
MEAN_ANOMALY   = 294.7800

EPHEMERIS_TYPE = 0
CLASSIFICATION_TYPE = U
NORAD_CAT_ID   = 31114
ELEMENT_SET_NO = 999
REV_AT_EPOCH   = 97331
BSTAR          = .14833846E-3
MEAN_MOTION_DOT = .282E-5
MEAN_MOTION_DDOT = 0

CCSDS_OMM_VERS = 2.0
CREATION_DATE  = 
ORIGINATOR     = 

OBJECT_NAME    = COSMO-SKYMED 1
OBJECT_ID      = 2007-023A
CENTER_NAME    = EARTH
REF_FRAME      = TEME
TIME_SYSTEM    = UTC
MEAN_ELEMENT_THEORY = SGP/SGP4

EPOCH          = 2026-01-23T14:14:49.314048
MEAN_MOTION    = 14.96139186
ECCENTRICITY   = .00011719
INCLINATION    = 97.8842
RA_OF_ASC_NODE = 214.2791
ARG_OF_PERICENTER = 89.9402
MEAN_ANOMALY   = 270.1953

EPHEMERIS_TYPE = 0
CLASSIFICATION_TYPE = U
NORAD_CAT_ID   = 31598
ELEMENT_SET_NO = 999
REV_AT_EPOCH   = 816
BSTAR          = .51595798E-3
MEAN_MOTION_DOT = .575E-4
MEAN_MOTION_DDOT = 0

CCSDS_OMM_VERS = 2.0
CREATION_DATE  = 
ORIGINATOR     = 

OBJECT_NAME    = COSMOS 2428
OBJECT_ID      = 2007-029A
CENTER_NAME    = EARTH
REF_FRAME      = TEME
TIME_SYSTEM    = UTC
MEAN_ELEMENT_THEORY = SGP/SGP4

EPOCH          = 2026-01-23T05:24:48.561984
MEAN_MOTION    = 14.12918153
ECCENTRICITY   = .00061932
INCLINATION    = 70.9402
RA_OF_ASC_NODE = 298.7808
ARG_OF_PERICENTER = 328.7886
MEAN_ANOMALY   = 31.2866

EPHEMERIS_TYPE = 0
CLASSIFICATION_TYPE = U
NORAD_CAT_ID   = 31792
ELEMENT_SET_NO = 999
REV_AT_EPOCH   = 95767
BSTAR          = .28657187E-3
MEAN_MOTION_DOT = .486E-5
MEAN_MOTION_DDOT = 0

CCSDS_OMM_VERS = 2.0
CREATION_DATE  = 
ORIGINATOR     = 

OBJECT_NAME    = SL-16 R/B
OBJECT_ID      = 2007-029B
CENTER_NAME    = EARTH
REF_FRAME      = TEME
TIME_SYSTEM    = UTC
MEAN_ELEMENT_THEORY = SGP/SGP4

EPOCH          = 2026-01-23T15:54:16.726176
MEAN_MOTION    = 14.14822225
ECCENTRICITY   = .00019718
INCLINATION    = 70.9740
RA_OF_ASC_NODE = 267.0349
ARG_OF_PERICENTER = 272.4093
MEAN_ANOMALY   = 118.3435

EPHEMERIS_TYPE = 0
CLASSIFICATION_TYPE = U
NORAD_CAT_ID   = 31793
ELEMENT_SET_NO = 999
REV_AT_EPOCH   = 95900
BSTAR          = -.340459E-5
MEAN_MOTION_DOT = -.54E-6
MEAN_MOTION_DDOT = 0

CCSDS_OMM_VERS = 2.0
CREATION_DATE  = 
ORIGINATOR     = 

OBJECT_NAME    = KORONAS-FOTON
OBJECT_ID      = 2009-003A
CENTER_NAME    = EARTH
REF_FRAME      = TEME
TIME_SYSTEM    = UTC
MEAN_ELEMENT_THEORY = SGP/SGP4

EPOCH          = 2026-01-23T05:32:16.279872
MEAN_MOTION    = 15.42126113
ECCENTRICITY   = .00100387
INCLINATION    = 82.4332
RA_OF_ASC_NODE = 323.0870
ARG_OF_PERICENTER = 332.3207
MEAN_ANOMALY   = 27.7504

EPHEMERIS_TYPE = 0
CLASSIFICATION_TYPE = U
NORAD_CAT_ID   = 33504
ELEMENT_SET_NO = 999
REV_AT_EPOCH   = 93873
BSTAR          = .35983419E-3
MEAN_MOTION_DOT = .1547E-3
MEAN_MOTION_DDOT = 0

CCSDS_OMM_VERS = 2.0
CREATION_DATE  = 
ORIGINATOR     = 

OBJECT_NAME    = CZ-2C R/B
OBJECT_ID      = 2011-030B
CENTER_NAME    = EARTH
REF_FRAME      = TEME
TIME_SYSTEM    = UTC
MEAN_ELEMENT_THEORY = SGP/SGP4

EPOCH          = 2026-01-23T11:51:11.424672
MEAN_MOTION    = 14.81044580
ECCENTRICITY   = .00537333
INCLINATION    = 97.8477
RA_OF_ASC_NODE = 341.6932
ARG_OF_PERICENTER = 136.1725
MEAN_ANOMALY   = 339.1545

EPHEMERIS_TYPE = 0
CLASSIFICATION_TYPE = U
NORAD_CAT_ID   = 37731
ELEMENT_SET_NO = 999
REV_AT_EPOCH   = 78340
BSTAR          = .2761959E-3
MEAN_MOTION_DOT = .2141E-4
MEAN_MOTION_DDOT = 0

CCSDS_OMM_VERS = 2.0
CREATION_DATE  = 
ORIGINATOR     = 

OBJECT_NAME    = H-2A R/B
OBJECT_ID      = 2012-025E
CENTER_NAME    = EARTH
REF_FRAME      = TEME
TIME_SYSTEM    = UTC
MEAN_ELEMENT_THEORY = SGP/SGP4

EPOCH          = 2026-01-23T11:35:05.015616
MEAN_MOTION    = 14.94751760
ECCENTRICITY   = .00460795
INCLINATION    = 98.4656
RA_OF_ASC_NODE = 346.9536
ARG_OF_PERICENTER = 100.2284
MEAN_ANOMALY   = 260.4135

EPHEMERIS_TYPE = 0
CLASSIFICATION_TYPE = U
NORAD_CAT_ID   = 38341
ELEMENT_SET_NO = 999
REV_AT_EPOCH   = 74146
BSTAR          = .42559296E-3
MEAN_MOTION_DOT = .4655E-4
MEAN_MOTION_DDOT = 0

CCSDS_OMM_VERS = 2.0
CREATION_DATE  = 
ORIGINATOR     = 

OBJECT_NAME    = SHIJIAN-16 (SJ-16)
OBJECT_ID      = 2013-057A
CENTER_NAME    = EARTH
REF_FRAME      = TEME
TIME_SYSTEM    = UTC
MEAN_ELEMENT_THEORY = SGP/SGP4

EPOCH          = 2026-01-23T15:26:17.663136
MEAN_MOTION    = 14.92193482
ECCENTRICITY   = .0017634
INCLINATION    = 74.9719
RA_OF_ASC_NODE = 270.3593
ARG_OF_PERICENTER = 222.9718
MEAN_ANOMALY   = 137.0094

EPHEMERIS_TYPE = 0
CLASSIFICATION_TYPE = U
NORAD_CAT_ID   = 39358
ELEMENT_SET_NO = 999
REV_AT_EPOCH   = 66478
BSTAR          = .31095675E-3
MEAN_MOTION_DOT = .3149E-4
MEAN_MOTION_DDOT = 0

