ALOS (DAICHI)           
1 28931U 06002A   26023.63788039  .00002465  00000+0  42270-3 0  9992
2 28931  98.1155 339.8471 0002205  82.1597 277.9859 14.69643397 66865
H-2A R/B                
1 28932U 06002B   26023.65888305  .00012936  00000+0  66202-3 0  9997
2 28932  98.2347 166.8678 0054014  35.5522 324.9288 15.15488259 87613
RESURS-DK 1             
1 29228U 06021A   26023.36852630  .00004143  00000+0  24385-3 0  9994
2 29228  69.9349 354.2308 0005143 218.7892 141.2905 15.12441188 80678
CZ-4B R/B               
1 29507U 06046C   26023.54727815  .00007553  00000+0  38654-3 0  9999
2 29507  97.5674  68.5731 0035029  65.2349 295.2522 15.16373457 53200
CZ-2C R/B               
1 31114U 07010B   26023.56716913  .00000282  00000+0  14834-3 0  9993
2 31114  98.3971 139.1133 0060017  65.9643 294.7800 14.20229144973319
COSMO-SKYMED 1          
1 31598U 07023A   26023.59362632  .00005750  00000+0  51596-3 0  9992
2 31598  97.8842 214.2791 0001171  89.9402 270.1953 14.96139186  8164
COSMOS 2428             
1 31792U 07029A   26023.22556206  .00000486  00000+0  28657-3 0  9999
2 31792  70.9402 298.7808 0006193 328.7886  31.2866 14.12918153957674
SL-16 R/B               
1 31793U 07029B   26023.66269359 -.00000054  00000+0 -34046-5 0  9992
2 31793  70.9740 267.0349 0001971 272.4093 118.3435 14.14822225959007
KORONAS-FOTON           
1 33504U 09003A   26023.23074398  .00015470  00000+0  35983-3 0  9993
2 33504  82.4332 323.0870 0010038 332.3207  27.7504 15.42126113938735
CZ-2C R/B               
1 37731U 11030B   26023.49388223  .00002141  00000+0  27620-3 0  9995
2 37731  97.8477 341.6932 0053733 136.1725 339.1545 14.81044580783406
H-2A R/B                
1 38341U 12025E   26023.48269694  .00004655  00000+0  42559-3 0  9997
2 38341  98.4656 346.9536 0046079 100.2284 260.4135 14.94751760741465
SHIJIAN-16 (SJ-16)      
1 39358U 13057A   26023.64325999  .00003149  00000+0  31096-3 0  9992
2 39358  74.9719 270.3593 0017634 222.9718 137.0094 14.92193482664786
